STARLINK-4300           
1 53173U 22083AT  26099.99656220  .00001909  00000+0  13798-3 0  9998
2 53173  53.2175 358.5704 0001296  88.7926 271.3215 15.08840815206429
STARLINK-4205           
1 53174U 22083AU  26100.01821185  .00000925  00000+0  76246-4 0  9994
2 53174  53.2156  33.4127 0002505 101.4084 258.7189 15.08819901205946
STARLINK-4292           
1 53175U 22083AV  26100.02094711  .00000475  00000+0  47965-4 0  9999
2 53175  53.2195  33.4697 0002691  88.1540 271.9761 15.08831836205940
STARLINK-4294           
1 53176U 22083AW  26100.15754492  .00002037  00000+0  14599-3 0  9995
2 53176  53.2194   7.7659 0001213  88.1376 271.9755 15.08854849206312
STARLINK-4298           
1 53177U 22083AX  26099.98920296 -.00001561  00000+0 -79998-4 0  9999
2 53177  53.2202 358.5982 0001486 100.6941 259.4219 15.08833243206422
STARLINK-4280           
1 53178U 22083AY  26100.01450757 -.00001205  00000+0 -57644-4 0  9996
2 53178  53.2183  23.4982 0001394  96.4471 263.6680 15.08826860206074
STARLINK-4276           
1 53179U 22083AZ  26099.87463450 -.00001580  00000+0 -81239-4 0  9995
2 53179  53.2193 343.7263 0001463  92.9612 267.1548 15.08819282206624
STARLINK-4258           
1 53180U 22083BA  26099.96666392  .00001607  00000+0  11908-3 0  9990
2 53180  53.2185 343.5837 0001330  78.6843 281.4298 15.08830802206635
STARLINK-4278           
1 53182U 22083BC  26099.98552036  .00000293  00000+0  36476-4 0  9991
2 53182  53.2192 358.6182 0001342  88.5654 271.5492 15.08843559206424
STARLINK-4268           
1 53183U 22083BD  26100.06003678  .00000624  00000+0  57287-4 0  9998
2 53183  53.2185 348.2066 0001133  90.7044 269.4078 15.08832639206578
STARLINK-4257           
1 53184U 22083BE  26099.87092072  .00000292  00000+0  36444-4 0  9994
2 53184  53.2198 343.7329 0001536  95.9926 264.1241 15.08846036206635
STARLINK-4391           
1 53189U 22084A   26100.05855728  .00000538  00000+0  41510-4 0  9991
2 53189  97.6032 162.0952 0001137 146.4316 213.6983 15.05651188204779
STARLINK-4332           
1 53190U 22084B   26099.40782424 -.00000736  00000+0 -46823-4 0  9995
2 53190  97.6028 161.4903 0001100 123.6738 236.4593 15.05650222204677
STARLINK-4369           
1 53191U 22084C   26100.05443941  .00000423  00000+0  33511-4 0  9999
2 53191  97.6029 161.0306 0000994  94.0353 266.0987 15.05649229204026
STARLINK-4375           
1 53192U 22084D   26100.16932530  .00000424  00000+0  33567-4 0  9991
2 53192  97.6041 162.2381 0001326 134.9664 225.1671 15.05647422204788
STARLINK-4351           
1 53193U 22084E   26100.06828454  .00000385  00000+0  30904-4 0  9998
2 53193  97.6021 161.0221 0001235  93.7446 266.3922 15.05646946205042
STARLINK-4382           
1 53194U 22084F   26100.05301948  .00000200  00000+0  18072-4 0  9990
2 53194  97.6044 162.0933 0000547 113.0246 247.1039 15.05651944204092
STARLINK-4403           
1 53197U 22084J   26100.06274414  .00000223  00000+0  19650-4 0  9999
2 53197  97.6026 160.9956 0000689  99.7411 260.3894 15.05649757204026
STARLINK-4385           
1 53198U 22084K   26100.15966380 -.00000017  00000+0  30568-5 0  9994
2 53198  97.6015 161.1852 0001586  91.6700 268.4709 15.05657483204706
STARLINK-4395           
1 53199U 22084L   26100.16102080 -.00000202  00000+0 -97811-5 0  9996
2 53199  97.6026 162.2305 0000715 107.6899 252.4406 15.05641996204118
STARLINK-4417           
1 53200U 22084M   26100.04748189  .00000366  00000+0  29549-4 0  9993
2 53200  97.6032 162.0837 0000780 145.7172 214.4105 15.05646880204756
STARLINK-4405           
1 53201U 22084N   26100.06410263  .00003439  00000+0  24240-3 0  9991
2 53201  97.6015 162.1975 0000723 171.6216 188.5023 15.05654646204104
STARLINK-4411           
1 53202U 22084P   26100.14995006  .00001203  00000+0  87564-4 0  9990
2 53202  97.6024 162.2472 0000846 115.2518 244.8796 15.05638376204119
STARLINK-4409           
1 53203U 22084Q   26100.14715470  .00002004  00000+0  14301-3 0  9994
2 53203  97.6015 162.2331 0000751 129.5855 230.5438 15.05664823204112
STARLINK-4410           
1 53204U 22084R   26099.40647287 -.00000476  00000+0 -28766-4 0  9995
2 53204  97.6028 160.3184 0001372  77.2314 282.9066 15.05642105204589
STARLINK-4397           
1 53205U 22084S   26100.14163894  .00000087  00000+0  10272-4 0  9996
2 53205  97.6025 162.2323 0001220  93.5335 266.6032 15.05646650204119
STARLINK-4408           
1 53206U 22084T   26100.15547693  .00000487  00000+0  37950-4 0  9997
2 53206  97.6019 162.2224 0000763 121.8266 238.3035 15.05647701204119
STARLINK-4413           
1 53207U 22084U   26100.05166589  .00000399  00000+0  31863-4 0  9997
2 53207  97.6045 160.9650 0000947  88.7227 271.4108 15.05650976204026
STARLINK-4425           
1 53208U 22084V   26100.04890051  .00000701  00000+0  52811-4 0  9998
2 53208  97.6049 160.9943 0000837  99.1688 260.9634 15.05646592204027
STARLINK-4423           
1 53209U 22084W   26100.06552653 -.00000152  00000+0 -63265-5 0  9992
2 53209  97.6030 161.1041 0001381  89.4714 270.6671 15.05649905204038
STARLINK-4427           
1 53210U 22084X   26100.04613000  .00000572  00000+0  43875-4 0  9994
2 53210  97.6047 160.9894 0000872 101.6163 258.5161 15.05647799204566
STARLINK-4416           
1 53212U 22084Z   26100.14440534  .00000654  00000+0  49515-4 0  9995
2 53212  97.6020 162.2201 0001187 153.8244 206.3043 15.05645510204104
STARLINK-4414           
1 53213U 22084AA  26100.15412917  .00000375  00000+0  30209-4 0  9991
2 53213  97.6028 161.1163 0001971  88.3518 271.7934 15.05647998204562
STARLINK-4353           
1 53214U 22084AB  26100.17351096  .00000266  00000+0  22647-4 0  9990
2 53214  97.6043 161.1093 0001203  99.1502 260.9860 15.05646498204048
STARLINK-4335           
1 53215U 22084AC  26100.06133183  .00000202  00000+0  18203-4 0  9997
2 53215  97.6036 162.1513 0000740 123.1975 236.9323 15.05650435204623
STARLINK-4376           
1 53216U 22084AD  26100.16243523  .00000388  00000+0  31114-4 0  9990
2 53216  97.6044 161.1153 0001551  95.3294 264.8110 15.05647815204045
STARLINK-4384           
1 53218U 22084AF  26100.17210117  .00000273  00000+0  23111-4 0  9997
2 53218  97.6039 162.3190 0000674 117.3355 242.7940 15.05646620204648
STARLINK-4373           
1 53219U 22084AG  26100.06686902  .00000051  00000+0  77550-5 0  9996
2 53219  97.6029 162.1270 0001218 111.1626 248.9731 15.05649191204106
STARLINK-4363           
1 53220U 22084AH  26100.16520294  .00000123  00000+0  12718-4 0  9994
2 53220  97.6036 161.0950 0001877  99.5165 260.6274 15.05646784204565
STARLINK-4377           
1 53221U 22084AJ  26100.05997991 -.00000220  00000+0 -11015-4 0  9994
2 53221  97.6041 161.0629 0000702  91.5079 268.6228 15.05657738204037
STARLINK-4356           
1 53224U 22084AM  26100.16797220  .00000774  00000+0  57875-4 0  9998
2 53224  97.6039 161.0826 0001858  90.0361 270.1078 15.05648069204046
STARLINK-4358           
1 53225U 22084AN  26100.06963403  .00000263  00000+0  22431-4 0  9999
2 53225  97.6027 162.1056 0000720 167.1748 192.9497 15.05648984204102
STARLINK-4359           
1 53226U 22084AP  26100.15135780 -.00000185  00000+0 -86325-5 0  9997
2 53226  97.6026 161.1004 0001651  89.1354 271.0062 15.05646433204041
STARLINK-4366           
1 53227U 22084AQ  26100.05025938 -.00000900  00000+0 -58203-4 0  9998
2 53227  97.6049 162.1049 0000489 164.7459 195.3783 15.05642669204103
STARLINK-4365           
1 53228U 22084AR  26100.17628447  .00000652  00000+0  49416-4 0  9994
2 53228  97.6037 161.2081 0001031 101.3312 258.8030 15.05649479204056
STARLINK-4367           
1 53229U 22084AS  26100.05578993  .00000570  00000+0  43714-4 0  9996
2 53229  97.6033 162.1164 0000854  88.5415 271.5910 15.05651848204105
STARLINK-4364           
1 53230U 22084AT  26100.16656003  .00000462  00000+0  36207-4 0  9998
2 53230  97.6039 162.2802 0001310 100.7674 259.3701 15.05649536204120
STARLINK-4370           
1 53231U 22084AU  26100.17763090  .00000538  00000+0  41525-4 0  9998
2 53231  97.6041 162.2523 0000908 127.0638 233.0672 15.05649123204126
STARLINK-4371           
1 53232U 22084AV  26100.14858088 -.00002252  00000+0 -15193-3 0  9996
2 53232  97.6022 161.0858 0001958  92.2044 267.9407 15.05649925204047
STARLINK-4372           
1 53233U 22084AW  26100.14027966  .00000007  00000+0  47105-5 0  9994
2 53233  97.6011 161.0892 0001367  94.4192 265.7191 15.05647751204047
STARLINK-4368           
1 53234U 22084AX  26099.87721965  .00000734  00000+0  55059-4 0  9995
2 53234  97.6017 160.8197 0001542  78.4282 281.7118 15.05656874205017
CSS (WENTIAN)           
1 53239U 22085A   26099.79993243  .00026712  00000+0  29783-3 0  9990
2 53239  41.4683  18.6460 0004513 172.0763 188.0148 15.62188174282762
STARLINK-4056           
1 53242U 22086A   26100.16767907  .00000384  00000+0  42198-4 0  9998
2 53242  53.2182  57.7972 0001516  91.3393 268.7772 15.08843616206062
STARLINK-4047           
1 53243U 22086B   26100.13958463  .00000315  00000+0  37890-4 0  9992
2 53243  53.2175  62.6287 0001415  85.0683 275.0470 15.08844811206018
STARLINK-4125           
1 53244U 22086C   26100.16538744  .00000227  00000+0  32378-4 0  9990
2 53244  53.2174  62.8983 0001423  91.3579 268.7576 15.08841984205996
STARLINK-4131           
1 53246U 22086E   26100.16170419 -.00000526  00000+0 -14978-4 0  9993
2 53246  53.2195  62.8389 0001190  83.7735 276.3392 15.08831481204880
STARLINK-4061           
1 53247U 22086F   26100.18242844  .00000743  00000+0  64782-4 0  9995
2 53247  53.2177  57.9264 0001429  95.9310 264.1845 15.08834411206063
STARLINK-4135           
1 53248U 22086G   26100.17137505  .00000276  00000+0  35416-4 0  9995
2 53248  53.2179  57.8994 0001397  88.5980 271.5173 15.08835969206065
STARLINK-4128           
1 53249U 22086H   26100.04213906  .00000732  00000+0  64049-4 0  9993
2 53249  53.2167  53.3833 0001328  90.5564 269.5581 15.08839793205812
